NORAD_CAT_ID,OBJECT_NAME,OBJECT_TYPE,EPOCH,MEAN_MOTION,ECCENTRICITY,INCLINATION,RA_OF_ASC_NODE,ARG_OF_PERICENTER,MEAN_ANOMALY,BSTAR,MEAN_MOTION_DOT,MEAN_MOTION_DDOT,TLE_LINE0,TLE_LINE1,TLE_LINE2,SEMIMAJOR_AXIS,PERIOD,APOGEE,PERIGEE,DECAYED
52377.0,STARLINK-3805,PAYLOAD,2022-11-15 20:54:22,15.088363199999998,0.0002297,53.2189,220.2115,41.6639,318.4527,0.00020038,2.902e-05,0.0,0 STARLINK-3805,1 52377U 22045AY  22319.87109720  .00002902  00000-0  20038-3 0  9997,2 52377  53.2189 220.2115 0002297  41.6639 318.4527 15.08836320 33277,6917.892,95.438,541.346,538.168,0.0
52377.0,STARLINK-3805,PAYLOAD,2022-11-16 03:15:55,15.08840935,0.0002272,53.2187,219.022,41.3692,318.7472,0.00023696,3.485e-05,0.0,0 STARLINK-3805,1 52377U 22045AY  22320.13605528  .00003485  00000-0  23696-3 0  9995,2 52377  53.2187 219.0220 0002272  41.3692 318.7472 15.08840935 33311,6917.878000000002,95.437,541.314,538.1709999999998,0.0
52377.0,STARLINK-3805,PAYLOAD,2022-11-16 15:58:59,15.08849903,0.0002301,53.2186,216.6434,42.3131,317.8039,0.00016197,2.291e-05,0.0,0 STARLINK-3805,1 52377U 22045AY  22320.66596896  .00002291  00000-0  16197-3 0  9992,2 52377  53.2186 216.6434 0002301  42.3131 317.8039 15.08849903 33393,6917.85,95.437,541.307,538.123,0.0
52377.0,STARLINK-3805,PAYLOAD,2022-11-17 01:31:18,15.08842472,0.0002333,53.2186,214.859,41.2835,318.8334,2.726300000000001e-05,1.46e-06,0.0,0 STARLINK-3805,1 52377U 22045AY  22321.06341150  .00000146  00000-0  27263-4 0  9992,2 52377  53.2186 214.8590 0002333  41.2835 318.8334 15.08842472 33450,6917.873000000001,95.437,541.352,538.124,0.0
52377.0,STARLINK-3805,PAYLOAD,2022-11-17 03:06:41,15.08843301,0.0002332,53.2186,214.5616,41.5731,318.5439,3.4558000000000004e-05,2.62e-06,0.0,0 STARLINK-3805,1 52377U 22045AY  22321.12965113  .00000262  00000-0  34558-4 0  9994,2 52377  53.2186 214.5616 0002332  41.5731 318.5439 15.08843301 33469,6917.87,95.437,541.349,538.122,0.0
52377.0,STARLINK-3805,PAYLOAD,2022-11-18 02:57:29,15.08833082,0.000229,53.2192,210.1012,41.5978,318.5188,0.00011627,1.562e-05,0.0,0 STARLINK-3805,1 52377U 22045AY  22322.12325748  .00001562  00000-0  11627-3 0  9994,2 52377  53.2192 210.1012 0002290  41.5978 318.5188 15.08833082 33617,6917.901999999999,95.438,541.351,538.182,0.0
52377.0,STARLINK-3805,PAYLOAD,2022-11-19 01:12:53,15.08828863,0.0002273,53.219,205.9384,40.9306,319.1857,0.00019583,2.829e-05,0.0,0 STARLINK-3805,1 52377U 22045AY  22323.05061882  .00002829  00000-0  19583-3 0  9999,2 52377  53.2190 205.9384 0002273  40.9306 319.1857 15.08828863 33754,6917.9140000000025,95.438,541.352,538.207,0.0
52377.0,STARLINK-3805,PAYLOAD,2022-11-20 01:03:39,15.08846911,0.000224,53.2188,201.478,40.488,319.6279,0.00012027,1.627e-05,0.0,0 STARLINK-3805,1 52377U 22045AY  22324.04420707  .00001627  00000-0  12027-3 0  9995,2 52377  53.2188 201.4780 0002240  40.4880 319.6279 15.08846911 33902,6917.859,95.437,541.274,538.175,0.0
52377.0,STARLINK-3805,PAYLOAD,2022-11-20 20:08:17,15.0883805,0.0002197,53.2192,197.9104,41.7626,318.3534,0.00015018,2.103e-05,0.0,0 STARLINK-3805,1 52377U 22045AY  22324.83908994  .00002103  00000-0  15018-3 0  9994,2 52377  53.2192 197.9104 0002197  41.7626 318.3534 15.08838050 34028,6917.886,95.438,541.271,538.231,0.0
52377.0,STARLINK-3805,PAYLOAD,2022-11-20 21:43:40,15.08832263,0.0002273,53.2199,197.6135,41.2431,318.8733,0.0002396,3.526e-05,0.0,0 STARLINK-3805,1 52377U 22045AY  22324.90533071  .00003526  00000-0  23960-3 0  9997,2 52377  53.2199 197.6135 0002273  41.2431 318.8733 15.08832263 34037,6917.904,95.438,541.341,538.197,0.0
52377.0,STARLINK-3805,PAYLOAD,2022-11-21 08:51:22,15.08845216,0.0002251,53.2222,195.534,30.998,329.1144,-6.3901e-05,-1.305e-05,0.0,0 STARLINK-3805,1 52377U 22045AY  22325.36901176 -.00001305  00000-0 -63901-4 0  9998,2 52377  53.2222 195.5340 0002251  30.9980 329.1144 15.08845216 34100,6917.864000000001,95.437,541.2869999999998,538.172,0.0
52377.0,STARLINK-3805,PAYLOAD,2022-11-21 15:12:55,15.08826272,0.000238,53.2232,194.3455,38.5827,321.5335,0.00013609,1.877e-05,0.0,0 STARLINK-3805,1 52377U 22045AY  22325.63397530  .00001877  00000-0  13609-3 0  9992,2 52377  53.2232 194.3455 0002380  38.5827 321.5335 15.08826272 34145,6917.922,95.438,541.434,538.141,0.0
52377.0,STARLINK-3805,PAYLOAD,2022-11-21 19:59:04,15.08855427,0.0002595,53.2232,193.4536,36.9421,323.175,-0.0002177,-3.753e-05,0.0,0 STARLINK-3805,1 52377U 22045AY  22325.83269576 -.00003753  00000-0 -21770-3 0  9997,2 52377  53.2232 193.4536 0002595  36.9421 323.1750 15.08855427 34171,6917.833000000001,95.437,541.493,537.903,0.0
52377.0,STARLINK-3805,PAYLOAD,2022-11-21 21:34:28,15.08835437,0.000242,53.2225,193.1558,38.6815,321.435,3.3427e-05,2.44e-06,0.0,0 STARLINK-3805,1 52377U 22045AY  22325.89893601  .00000244  00000-0  33427-4 0  9998,2 52377  53.2225 193.1558 0002420  38.6815 321.4350 15.08835437 34184,6917.894,95.438,541.433,538.085,0.0
52377.0,STARLINK-3805,PAYLOAD,2022-11-22 19:49:51,15.08846351,0.0002427,53.2219,188.9926,40.3456,319.7716,7.9525e-05,9.78e-06,0.0,0 STARLINK-3805,1 52377U 22045AY  22326.82628690  .00000978  00000-0  79525-4 0  9999,2 52377  53.2219 188.9926 0002427  40.3456 319.7716 15.08846351 34325,6917.861,95.437,541.405,538.047,0.0
52377.0,STARLINK-3805,PAYLOAD,2022-11-23 00:36:01,15.08837744,0.0002227,53.2193,188.0985,38.0992,322.0157,-1.7202e-05,-5.62e-06,0.0,0 STARLINK-3805,1 52377U 22045AY  22327.02501400 -.00000562  00000-0 -17202-4 0  9996,2 52377  53.2193 188.0985 0002227  38.0992 322.0157 15.08837744 34354,6917.887,95.438,541.293,538.212,0.0
52377.0,STARLINK-3805,PAYLOAD,2022-11-23 08:32:57,15.08832523,0.0002192,53.2188,186.6117,37.2309,322.8834,2.3973e-05,9.3e-07,0.0,0 STARLINK-3805,1 52377U 22045AY  22327.35621725  .00000093  00000-0  23973-4 0  9994,2 52377  53.2188 186.6117 0002192  37.2309 322.8834 15.08832523 34409,6917.903,95.438,541.285,538.252,0.0
52377.0,STARLINK-3805,PAYLOAD,2022-11-23 21:16:02,15.08838713,0.000223,53.2193,184.232,39.9122,320.2034,2.4797e-05,1.06e-06,0.0,0 STARLINK-3805,1 52377U 22045AY  22327.88613514  .00000106  00000-0  24797-4 0  9999,2 52377  53.2193 184.2320 0002230  39.9122 320.2034 15.08838713 34489,6917.884,95.438,541.2919999999998,538.207,0.0
52377.0,STARLINK-3805,PAYLOAD,2022-11-24 00:26:48,15.08839646,0.0002245,53.2192,183.6372,40.3394,319.7764,2.9326e-05,1.78e-06,0.0,0 STARLINK-3805,1 52377U 22045AY  22328.01861447  .00000178  00000-0  29326-4 0  9997,2 52377  53.2192 183.6372 0002245  40.3394 319.7764 15.08839646 34503,6917.880999999999,95.438,541.3,538.193,0.0
52377.0,STARLINK-3805,PAYLOAD,2022-11-24 17:56:02,15.08837597,0.0002279,53.2188,180.3665,41.9994,318.1173,0.00011525,1.546e-05,0.0,0 STARLINK-3805,1 52377U 22045AY  22328.74725194  .00001546  00000-0  11525-3 0  9996,2 52377  53.2188 180.3665 0002279  41.9994 318.1173 15.08837597 34619,6917.888000000001,95.438,541.3290000000002,538.1759999999998,0.0
52377.0,STARLINK-3805,PAYLOAD,2022-11-25 06:39:07,15.08839342,0.0002317,53.2186,177.9878,42.7064,317.4108,0.00011288,1.509e-05,0.0,0 STARLINK-3805,1 52377U 22045AY  22329.27717147  .00001509  00000-0  11288-3 0  9999,2 52377  53.2186 177.9878 0002317  42.7064 317.4108 15.08839342 34693,6917.882,95.438,541.35,538.145,0.0
52377.0,STARLINK-3805,PAYLOAD,2022-11-25 17:46:50,15.08831021,0.0002219,53.2186,175.9055,48.5684,311.5498,-5.4287e-06,-3.75e-06,0.0,0 STARLINK-3805,1 52377U 22045AY  22329.74086386 -.00000375  00000-0 -54287-5 0  9995,2 52377  53.2186 175.9055 0002219  48.5684 311.5498 15.08831021 34762,6917.908,95.438,541.308,538.238,0.0
52377.0,STARLINK-3805,PAYLOAD,2022-11-25 19:22:13,15.08832216,0.0002216,53.2188,175.608,49.2017,310.9167,-1.5356e-06,-3.13e-06,0.0,0 STARLINK-3805,1 52377U 22045AY  22329.80710330 -.00000313  00000-0 -15356-5 0  9991,2 52377  53.2188 175.6080 0002216  49.2017 310.9167 15.08832216 34778,6917.904,95.438,541.302,538.236,0.0
52377.0,STARLINK-3805,PAYLOAD,2022-11-26 06:29:55,15.08835905,0.0002303,53.2186,173.5276,45.1148,315.0031,8.7211e-06,-1.5e-06,0.0,0 STARLINK-3805,1 52377U 22045AY  22330.27078220 -.00000150  00000-0  87211-5 0  9996,2 52377  53.2186 173.5276 0002303  45.1148 315.0031 15.08835905 34849,6917.893,95.438,541.351,538.165,0.0
52377.0,STARLINK-3805,PAYLOAD,2022-11-26 20:48:23,15.08845541,0.0002261,53.2189,170.8512,47.3904,312.7279,-2.3675e-05,-6.65e-06,0.0,0 STARLINK-3805,1 52377U 22045AY  22330.86693747 -.00000665  00000-0 -23675-4 0  9993,2 52377  53.2189 170.8512 0002261  47.3904 312.7279 15.08845541 34937,6917.863,95.437,541.293,538.164,0.0
52377.0,STARLINK-3805,PAYLOAD,2022-11-26 22:23:47,15.08804665,0.0002272,53.219,170.5538,57.2471,302.8739,0.00053053,8.157e-05,0.0,0 STARLINK-3805,1 52377U 22045AY  22330.93318567  .00008157  00000-0  53053-3 0  9999,2 52377  53.2190 170.5538 0002272  57.2471 302.8739 15.08804665 34949,6917.988,95.44,541.425,538.2819999999998,0.0
52377.0,STARLINK-3805,PAYLOAD,2022-11-27 12:42:14,15.08840563,0.0002306,53.2188,167.8779,45.6451,314.473,8.3991e-05,1.049e-05,0.0,0 STARLINK-3805,1 52377U 22045AY  22331.52933778  .00001049  00000-0  83991-4 0  9990,2 52377  53.2188 167.8779 0002306  45.6451 314.4730 15.08840563 35037,6917.879,95.438,541.339,538.148,0.0
52377.0,STARLINK-3805,PAYLOAD,2022-11-27 22:14:34,15.08830254,0.0002327,53.2189,166.0937,44.289,315.8289,-1.1275999999999997e-05,-4.68e-06,0.0,0 STARLINK-3805,1 52377U 22045AY  22331.92678925 -.00000468  00000-0 -11276-4 0  9997,2 52377  53.2189 166.0937 0002327  44.2890 315.8289 15.08830254 35096,6917.91,95.438,541.385,538.165,0.0
52377.0,STARLINK-3805,PAYLOAD,2022-11-28 06:11:30,15.08832393,0.0002263,53.2185,164.6077,44.8728,315.2447,-8.1809e-06,-4.18e-06,0.0,0 STARLINK-3805,1 52377U 22045AY  22332.25798928 -.00000418  00000-0 -81809-5 0  9995,2 52377  53.2185 164.6077 0002263  44.8728 315.2447 15.08832393 35148,6917.904,95.438,541.3340000000002,538.203,0.0
